{
  "type": "FeatureCollection",
  "features": [
    {
      "type": "Feature",
      "properties": {
        "norad_id": 37836,
        "name": "EUTELSAT 16A",
        "group": "eutelsat",
        "lat": 0.022068620548878995,
        "lon": -4.154407624422174,
        "alt_km": 35788.58435432738,
        "timestamp": "2025-12-03T17:47:50.383602+00:00",
        "meta_object_name": "EUTELSAT 16A",
        "meta_object_id": "2011-057A",
        "meta_epoch": "2025-12-03T06:58:55.780032",
        "meta_mean_motion": 1.00273705,
        "meta_eccentricity": 0.0006049,
        "meta_inclination": 0.0591,
        "meta_ra_of_asc_node": 347.1689,
        "meta_arg_of_pericenter": 271.8127,
        "meta_mean_anomaly": 294.1445,
        "meta_ephemeris_type": 0,
        "meta_classification_type": "U",
        "meta_norad_cat_id": 37836,
        "meta_element_set_no": 999,
        "meta_rev_at_epoch": 536,
        "meta_bstar": 0,
        "meta_mean_motion_dot": 1.23e-06,
        "meta_mean_motion_ddot": 0,
        "tle_line1": "1 37836U 11057A   25337.29092338  .00000123  00000+0  00000+0 0  9991",
        "tle_line2": "2 37836   0.0591 347.1689 0006049 271.8127 294.1445  1.00273705  5367"
      },
      "geometry": {
        "type": "Point",
        "coordinates": [
          -4.154407624422174,
          0.022068620548878995
        ]
      }
    },
    {
      "type": "Feature",
      "properties": {
        "norad_id": 38992,
        "name": "EUTELSAT 21B",
        "group": "eutelsat",
        "lat": 0.03385264310421185,
        "lon": 1.4134545859781074,
        "alt_km": 35786.96073123759,
        "timestamp": "2025-12-03T17:47:50.383618+00:00",
        "meta_object_name": "EUTELSAT 21B",
        "meta_object_id": "2012-062B",
        "meta_epoch": "2025-12-03T07:00:33.125184",
        "meta_mean_motion": 1.0027372,
        "meta_eccentricity": 0.0003357,
        "meta_inclination": 0.068,
        "meta_ra_of_asc_node": 345.6672,
        "meta_arg_of_pericenter": 279.9152,
        "meta_mean_anomaly": 293.549,
        "meta_ephemeris_type": 0,
        "meta_classification_type": "U",
        "meta_norad_cat_id": 38992,
        "meta_element_set_no": 999,
        "meta_rev_at_epoch": 4786,
        "meta_bstar": 0,
        "meta_mean_motion_dot": 1.49e-06,
        "meta_mean_motion_ddot": 0,
        "tle_line1": "1 38992U 12062B   25337.29205006  .00000149  00000+0  00000+0 0  9998",
        "tle_line2": "2 38992   0.0680 345.6672 0003357 279.9152 293.5490  1.00273720 47862"
      },
      "geometry": {
        "type": "Point",
        "coordinates": [
          1.4134545859781074,
          0.03385264310421185
        ]
      }
    },
    {
      "type": "Feature",
      "properties": {
        "norad_id": 39020,
        "name": "EUTELSAT 70B",
        "group": "eutelsat",
        "lat": 0.06987445387959715,
        "lon": 50.26880746470457,
        "alt_km": 35804.080229278836,
        "timestamp": "2025-12-03T17:47:50.383631+00:00",
        "meta_object_name": "EUTELSAT 70B",
        "meta_object_id": "2012-069A",
        "meta_epoch": "2025-12-03T10:40:00.970752",
        "meta_mean_motion": 1.00271624,
        "meta_eccentricity": 0.0004328,
        "meta_inclination": 0.0628,
        "meta_ra_of_asc_node": 1.7603,
        "meta_arg_of_pericenter": 240.0687,
        "meta_mean_anomaly": 61.2056,
        "meta_ephemeris_type": 0,
        "meta_classification_type": "U",
        "meta_norad_cat_id": 39020,
        "meta_element_set_no": 999,
        "meta_rev_at_epoch": 4754,
        "meta_bstar": 0,
        "meta_mean_motion_dot": -2.5e-07,
        "meta_mean_motion_ddot": 0,
        "tle_line1": "1 39020U 12069A   25337.44445568 -.00000025  00000+0  00000+0 0  9998",
        "tle_line2": "2 39020   0.0628   1.7603 0004328 240.0687  61.2056  1.00271624 47546"
      },
      "geometry": {
        "type": "Point",
        "coordinates": [
          50.26880746470457,
          0.06987445387959715
        ]
      }
    },
    {
      "type": "Feature",
      "properties": {
        "norad_id": 39122,
        "name": "EUTELSAT 117 WEST A",
        "group": "eutelsat",
        "lat": -0.015357632625388223,
        "lon": -137.0454140722198,
        "alt_km": 35774.53176280461,
        "timestamp": "2025-12-03T17:47:50.383644+00:00",
        "meta_object_name": "EUTELSAT 117 WEST A",
        "meta_object_id": "2013-012A",
        "meta_epoch": "2025-12-03T08:49:20.417088",
        "meta_mean_motion": 1.00271901,
        "meta_eccentricity": 0.0003159,
        "meta_inclination": 0.0376,
        "meta_ra_of_asc_node": 56.9809,
        "meta_arg_of_pericenter": 196.7734,
        "meta_mean_anomaly": 194.2496,
        "meta_ephemeris_type": 0,
        "meta_classification_type": "U",
        "meta_norad_cat_id": 39122,
        "meta_element_set_no": 999,
        "meta_rev_at_epoch": 4647,
        "meta_bstar": 0,
        "meta_mean_motion_dot": 5e-08,
        "meta_mean_motion_ddot": 0,
        "tle_line1": "1 39122U 13012A   25337.36759742  .00000005  00000+0  00000+0 0  9990",
        "tle_line2": "2 39122   0.0376  56.9809 0003159 196.7734 194.2496  1.00271901 46474"
      },
      "geometry": {
        "type": "Point",
        "coordinates": [
          -137.0454140722198,
          -0.015357632625388223
        ]
      }
    },
    {
      "type": "Feature",
      "properties": {
        "norad_id": 39163,
        "name": "EUTELSAT 7B",
        "group": "eutelsat",
        "lat": -0.005991624129670924,
        "lon": -13.211591215750552,
        "alt_km": 35772.43957579168,
        "timestamp": "2025-12-03T17:47:50.383656+00:00",
        "meta_object_name": "EUTELSAT 7B",
        "meta_object_id": "2013-022A",
        "meta_epoch": "2025-12-03T08:39:05.058144",
        "meta_mean_motion": 1.00269611,
        "meta_eccentricity": 0.0004191,
        "meta_inclination": 0.0677,
        "meta_ra_of_asc_node": 0.1048,
        "meta_arg_of_pericenter": 310.7582,
        "meta_mean_anomaly": 258.36,
        "meta_ephemeris_type": 0,
        "meta_classification_type": "U",
        "meta_norad_cat_id": 39163,
        "meta_element_set_no": 999,
        "meta_rev_at_epoch": 4599,
        "meta_bstar": 0,
        "meta_mean_motion_dot": 6.6e-07,
        "meta_mean_motion_ddot": 0,
        "tle_line1": "1 39163U 13022A   25337.36047521  .00000066  00000+0  00000+0 0  9998",
        "tle_line2": "2 39163   0.0677   0.1048 0004191 310.7582 258.3600  1.00269611 45995"
      },
      "geometry": {
        "type": "Point",
        "coordinates": [
          -13.211591215750552,
          -0.005991624129670924
        ]
      }
    },
    {
      "type": "Feature",
      "properties": {
        "norad_id": 39612,
        "name": "EXPRESS-AT1",
        "group": "eutelsat",
        "lat": 0.04097090312171347,
        "lon": 35.76111789870788,
        "alt_km": 35787.22714699349,
        "timestamp": "2025-12-03T17:47:50.383668+00:00",
        "meta_object_name": "EXPRESS-AT1",
        "meta_object_id": "2014-010A",
        "meta_epoch": "2025-12-03T12:43:38.719200",
        "meta_mean_motion": 1.00269885,
        "meta_eccentricity": 2.81e-05,
        "meta_inclination": 0.0165,
        "meta_ra_of_asc_node": 299.7247,
        "meta_arg_of_pericenter": 218.5792,
        "meta_mean_anomaly": 161.2291,
        "meta_ephemeris_type": 0,
        "meta_classification_type": "U",
        "meta_norad_cat_id": 39612,
        "meta_element_set_no": 999,
        "meta_rev_at_epoch": 4285,
        "meta_bstar": 0,
        "meta_mean_motion_dot": 9.7e-07,
        "meta_mean_motion_ddot": 0,
        "tle_line1": "1 39612U 14010A   25337.53030925  .00000097  00000+0  00000+0 0  9998",
        "tle_line2": "2 39612   0.0165 299.7247 0000281 218.5792 161.2291  1.00269885 42850"
      },
      "geometry": {
        "type": "Point",
        "coordinates": [
          35.76111789870788,
          0.04097090312171347
        ]
      }
    },
    {
      "type": "Feature",
      "properties": {
        "norad_id": 39613,
        "name": "EXPRESS-AT2",
        "group": "eutelsat",
        "lat": 0.01999600001877598,
        "lon": 119.60028886091642,
        "alt_km": 35792.45281741408,
        "timestamp": "2025-12-03T17:47:50.383681+00:00",
        "meta_object_name": "EXPRESS-AT2",
        "meta_object_id": "2014-010B",
        "meta_epoch": "2025-12-03T11:25:38.916768",
        "meta_mean_motion": 1.00270578,
        "meta_eccentricity": 0.0001443,
        "meta_inclination": 0.0222,
        "meta_ra_of_asc_node": 327.9403,
        "meta_arg_of_pericenter": 322.432,
        "meta_mean_anomaly": 93.4471,
        "meta_ephemeris_type": 0,
        "meta_classification_type": "U",
        "meta_norad_cat_id": 39613,
        "meta_element_set_no": 999,
        "meta_rev_at_epoch": 4253,
        "meta_bstar": 0,
        "meta_mean_motion_dot": 0,
        "meta_mean_motion_ddot": 0,
        "tle_line1": "1 39613U 14010B   25337.47614487  .00000000  00000+0  00000+0 0  9997",
        "tle_line2": "2 39613   0.0222 327.9403 0001443 322.4320  93.4471  1.00270578 42538"
      },
      "geometry": {
        "type": "Point",
        "coordinates": [
          119.60028886091642,
          0.01999600001877598
        ]
      }
    }
  ]
}